start=new Date('2022-08-14T00:00:00.000Z').valueOf();
sats=[{"CENTER_NAME":"EARTH","OBJECT_NAME":"STARLINK-1641","RA_OF_ASC_NODE":"49.7484","ARG_OF_PERICENTER":"77.5223","APOAPSIS":"548.269","MEAN_ANOMALY":"282.5934","REF_FRAME":"TEME","TLE_LINE2":"2 46174  53.0539  49.7484 0001506  77.5223 282.5934 15.06395878109547","SEMIMAJOR_AXIS":"6925.361","LAUNCH_DATE":"2020-08-18","ELEMENT_SET_NO":"999","MEAN_ELEMENT_THEORY":"SGP4","ECCENTRICITY":"0.00015060","FILE":"3535825","DECAY_DATE":null,"MEAN_MOTION_DDOT":"0.0000000000000","EPHEMERIS_TYPE":"0","GP_ID":"210161915","NORAD_CAT_ID":"46174","PERIAPSIS":"546.183","CLASSIFICATION_TYPE":"U","MEAN_MOTION_DOT":"-0.00000937","TIME_SYSTEM":"UTC","OBJECT_ID":"2020-057BK","SITE":"AFETR","COUNTRY_CODE":"US","RCS_SIZE":"LARGE","PERIOD":"95.592","MEAN_MOTION":"15.06395878","TLE_LINE1":"1 46174U 20057BK  22225.85829001 -.00000937  00000-0 -43986-4 0  9997","BSTAR":"-0.00004398600000","EPOCH":"2022-08-13T20:35:56.256864","REV_AT_EPOCH":"10954","OBJECT_TYPE":"PAYLOAD","INCLINATION":"53.0539"},{"MEAN_MOTION_DOT":"0.00002259","CLASSIFICATION_TYPE":"U","OBJECT_ID":"2020-062A","TIME_SYSTEM":"UTC","PERIAPSIS":"546.098","PERIOD":"95.592","TLE_LINE1":"1 46325U 20062A   22225.86980191  .00002259  00000-0  17052-3 0  9991","MEAN_MOTION":"15.06400791","SITE":"AFETR","RCS_SIZE":"LARGE","COUNTRY_CODE":"US","REV_AT_EPOCH":"10903","BSTAR":"0.00017052000000","EPOCH":"2022-08-13T20:52:30.885024","INCLINATION":"53.0544","OBJECT_TYPE":"PAYLOAD","APOAPSIS":"548.325","ARG_OF_PERICENTER":"66.8113","MEAN_ANOMALY":"293.3046","SEMIMAJOR_AXIS":"6925.346","REF_FRAME":"TEME","TLE_LINE2":"2 46325  53.0544  64.7079 0001608  66.8113 293.3046 15.06400791109039","CENTER_NAME":"EARTH","OBJECT_NAME":"STARLINK-1734","RA_OF_ASC_NODE":"64.7079","MEAN_ELEMENT_THEORY":"SGP4","LAUNCH_DATE":"2020-09-03","ELEMENT_SET_NO":"999","EPHEMERIS_TYPE":"0","MEAN_MOTION_DDOT":"0.0000000000000","GP_ID":"210160424","FILE":"3535825","ECCENTRICITY":"0.00016080","DECAY_DATE":null,"NORAD_CAT_ID":"46325"},{"COUNTRY_CODE":"US","RCS_SIZE":"LARGE","SITE":"AFETR","MEAN_MOTION":"15.06400511","TLE_LINE1":"1 46326U 20062B   22225.86752559  .00002854  00000-0  21040-3 0  9990","PERIOD":"95.592","PERIAPSIS":"546.039","OBJECT_ID":"2020-062B","TIME_SYSTEM":"UTC","CLASSIFICATION_TYPE":"U","MEAN_MOTION_DOT":"0.00002854","OBJECT_TYPE":"PAYLOAD","INCLINATION":"53.0540","EPOCH":"2022-08-13T20:49:14.210976","BSTAR":"0.00021040000000","REV_AT_EPOCH":"10779","ELEMENT_SET_NO":"999","LAUNCH_DATE":"2020-09-03","MEAN_ELEMENT_THEORY":"SGP4","RA_OF_ASC_NODE":"109.9595","CENTER_NAME":"EARTH","OBJECT_NAME":"STARLINK-1654","TLE_LINE2":"2 46326  53.0540 109.9595 0001694  65.8847 294.2319 15.06400511107793","REF_FRAME":"TEME","SEMIMAJOR_AXIS":"6925.347","APOAPSIS":"548.385","ARG_OF_PERICENTER":"65.8847","MEAN_ANOMALY":"294.2319","NORAD_CAT_ID":"46326","DECAY_DATE":null,"ECCENTRICITY":"0.00016940","FILE":"3535825","GP_ID":"210161175","MEAN_MOTION_DDOT":"0.0000000000000","EPHEMERIS_TYPE":"0"},{"ELEMENT_SET_NO":"999","LAUNCH_DATE":"2020-09-03","MEAN_ELEMENT_THEORY":"SGP4","RA_OF_ASC_NODE":"109.6042","CENTER_NAME":"EARTH","OBJECT_NAME":"STARLINK-1673","TLE_LINE2":"2 46327  53.0529 109.6042 0001465  87.5727 272.5430 15.06398438107796","REF_FRAME":"TEME","SEMIMAJOR_AXIS":"6925.353","ARG_OF_PERICENTER":"87.5727","APOAPSIS":"548.233","MEAN_ANOMALY":"272.5430","NORAD_CAT_ID":"46327","DECAY_DATE":null,"ECCENTRICITY":"0.00014650","FILE":"3535825","GP_ID":"210161426","EPHEMERIS_TYPE":"0","MEAN_MOTION_DDOT":"0.0000000000000","COUNTRY_CODE":"US","RCS_SIZE":"LARGE","SITE":"AFETR","MEAN_MOTION":"15.06398438","TLE_LINE1":"1 46327U 20062C   22225.88961782 -.00000069  00000-0  14287-4 0  9996","PERIOD":"95.592","PERIAPSIS":"546.204","OBJECT_ID":"2020-062C","TIME_SYSTEM":"UTC","CLASSIFICATION_TYPE":"U","MEAN_MOTION_DOT":"-0.00000069","OBJECT_TYPE":"PAYLOAD","INCLINATION":"53.0529","EPOCH":"2022-08-13T21:21:02.979648","BSTAR":"0.00001428700000","REV_AT_EPOCH":"10779"},{"NORAD_CAT_ID":"46328","GP_ID":"210162177","EPHEMERIS_TYPE":"0","MEAN_MOTION_DDOT":"0.0000000000000","DECAY_DATE":null,"ECCENTRICITY":"0.00015110","FILE":"3535825","MEAN_ELEMENT_THEORY":"SGP4","ELEMENT_SET_NO":"999","LAUNCH_DATE":"2020-09-03","TLE_LINE2":"2 46328  53.0561  89.7108 0001511  70.2339 289.8813 15.06392861108076","REF_FRAME":"TEME","SEMIMAJOR_AXIS":"6925.370","MEAN_ANOMALY":"289.8813","APOAPSIS":"548.282","ARG_OF_PERICENTER":"70.2339","RA_OF_ASC_NODE":"89.7108","OBJECT_NAME":"STARLINK-1686","CENTER_NAME":"EARTH","OBJECT_TYPE":"PAYLOAD","INCLINATION":"53.0561","REV_AT_EPOCH":"10807","EPOCH":"2022-08-13T20:51:51.705216","BSTAR":"0.00004849100000","MEAN_MOTION":"15.06392861","TLE_LINE1":"1 46328U 20062D   22225.86934844  .00000441  00000-0  48491-4 0  9991","PERIOD":"95.593","COUNTRY_CODE":"US","RCS_SIZE":"LARGE","SITE":"AFETR","TIME_SYSTEM":"UTC","OBJECT_ID":"2020-062D","CLASSIFICATION_TYPE":"U","MEAN_MOTION_DOT":"0.00000441","PERIAPSIS":"546.189"},{"LAUNCH_DATE":"2020-09-03","ELEMENT_SET_NO":"999","MEAN_ELEMENT_THEORY":"SGP4","OBJECT_NAME":"STARLINK-1695","CENTER_NAME":"EARTH","RA_OF_ASC_NODE":"89.5535","MEAN_ANOMALY":"290.5618","APOAPSIS":"548.374","ARG_OF_PERICENTER":"69.5543","SEMIMAJOR_AXIS":"6925.399","REF_FRAME":"TEME","TLE_LINE2":"2 46329  53.0556  89.5535 0001603  69.5543 290.5618 15.06383436108073","NORAD_CAT_ID":"46329","FILE":"3535825","ECCENTRICITY":"0.00016030","DECAY_DATE":null,"MEAN_MOTION_DDOT":"0.0000000000000","EPHEMERIS_TYPE":"0","GP_ID":"210160925","SITE":"AFETR","RCS_SIZE":"LARGE","COUNTRY_CODE":"US","PERIOD":"95.593","TLE_LINE1":"1 46329U 20062E   22225.90253327 -.00002206  00000-0 -12928-3 0  9995","MEAN_MOTION":"15.06383436","PERIAPSIS":"546.154","MEAN_MOTION_DOT":"-0.00002206","CLASSIFICATION_TYPE":"U","OBJECT_ID":"2020-062E","TIME_SYSTEM":"UTC","INCLINATION":"53.0556","OBJECT_TYPE":"PAYLOAD","BSTAR":"-0.00012928000000","EPOCH":"2022-08-13T21:39:38.874528","REV_AT_EPOCH":"10807"},{"REV_AT_EPOCH":"10808","BSTAR":"0.00003607200000","EPOCH":"2022-08-13T21:23:43.163520","OBJECT_TYPE":"PAYLOAD","INCLINATION":"53.0554","CLASSIFICATION_TYPE":"U","MEAN_MOTION_DOT":"0.00000256","OBJECT_ID":"2020-062F","TIME_SYSTEM":"UTC","PERIAPSIS":"546.151","PERIOD":"95.593","MEAN_MOTION":"15.06385930","TLE_LINE1":"1 46330U 20062F   22225.89147180  .00000256  00000-0  36072-4 0  9992","SITE":"AFETR","COUNTRY_CODE":"US","RCS_SIZE":"LARGE","MEAN_MOTION_DDOT":"0.0000000000000","EPHEMERIS_TYPE":"0","GP_ID":"210160675","ECCENTRICITY":"0.00015970","FILE":"3535825","DECAY_DATE":null,"NORAD_CAT_ID":"46330","MEAN_ANOMALY":"278.3800","APOAPSIS":"548.363","ARG_OF_PERICENTER":"81.7370","TLE_LINE2":"2 46330  53.0554  89.5880 0001597  81.7370 278.3800 15.06385930108081","REF_FRAME":"TEME","SEMIMAJOR_AXIS":"6925.392","CENTER_NAME":"EARTH","OBJECT_NAME":"STARLINK-1710","RA_OF_ASC_NODE":"89.5880","MEAN_ELEMENT_THEORY":"SGP4","LAUNCH_DATE":"2020-09-03","ELEMENT_SET_NO":"999"},{"SITE":"AFETR","COUNTRY_CODE":"US","RCS_SIZE":"LARGE","PERIOD":"95.592","MEAN_MOTION":"15.06395713","TLE_LINE1":"1 46331U 20062G   22225.86013505 -.00000447  00000-0 -11120-4 0  9994","PERIAPSIS":"546.175","CLASSIFICATION_TYPE":"U","MEAN_MOTION_DOT":"-0.00000447","OBJECT_ID":"2020-062G","TIME_SYSTEM":"UTC","OBJECT_TYPE":"PAYLOAD","INCLINATION":"53.0543","BSTAR":"-0.00001112000000","EPOCH":"2022-08-13T20:38:35.668320","REV_AT_EPOCH":"10779","LAUNCH_DATE":"2020-09-03","ELEMENT_SET_NO":"999","MEAN_ELEMENT_THEORY":"SGP4","CENTER_NAME":"EARTH","OBJECT_NAME":"STARLINK-1719","RA_OF_ASC_NODE":"109.7301","MEAN_ANOMALY":"282.5758","APOAPSIS":"548.279","ARG_OF_PERICENTER":"77.5401","TLE_LINE2":"2 46331  53.0543 109.7301 0001519  77.5401 282.5758 15.06395713107791","REF_FRAME":"TEME","SEMIMAJOR_AXIS":"6925.362","NORAD_CAT_ID":"46331","ECCENTRICITY":"0.00015190","FILE":"3535825","DECAY_DATE":null,"MEAN_MOTION_DDOT":"0.0000000000000","EPHEMERIS_TYPE":"0","GP_ID":"210161927"},{"TIME_SYSTEM":"UTC","OBJECT_ID":"2020-062H","MEAN_MOTION_DOT":"0.00000480","CLASSIFICATION_TYPE":"U","PERIAPSIS":"546.005","TLE_LINE1":"1 46332U 20062H   22225.87118974  .00000480  00000-0  51151-4 0  9995","MEAN_MOTION":"15.06404655","PERIOD":"95.592","RCS_SIZE":"LARGE","COUNTRY_CODE":"US","SITE":"AFETR","REV_AT_EPOCH":"10779","EPOCH":"2022-08-13T20:54:30.793536","BSTAR":"0.00005115100000","INCLINATION":"53.0540","OBJECT_TYPE":"PAYLOAD","SEMIMAJOR_AXIS":"6925.334","REF_FRAME":"TEME","TLE_LINE2":"2 46332  53.0540 109.6978 0001724  76.8412 283.2769 15.06404655107796","ARG_OF_PERICENTER":"76.8412","APOAPSIS":"548.393","MEAN_ANOMALY":"283.2769","RA_OF_ASC_NODE":"109.6978","OBJECT_NAME":"STARLINK-1721","CENTER_NAME":"EARTH","MEAN_ELEMENT_THEORY":"SGP4","ELEMENT_SET_NO":"999","LAUNCH_DATE":"2020-09-03","GP_ID":"210161677","MEAN_MOTION_DDOT":"0.0000000000000","EPHEMERIS_TYPE":"0","DECAY_DATE":null,"FILE":"3535825","ECCENTRICITY":"0.00017240","NORAD_CAT_ID":"46332"},{"MEAN_MOTION_DDOT":"0.0000000000000","EPHEMERIS_TYPE":"0","GP_ID":"210160425","FILE":"3535825","ECCENTRICITY":"0.00016680","DECAY_DATE":null,"NORAD_CAT_ID":"46333","MEAN_ANOMALY":"309.0792","APOAPSIS":"548.404","ARG_OF_PERICENTER":"51.0345","SEMIMAJOR_AXIS":"6925.384","TLE_LINE2":"2 46333  53.0537 109.6269 0001668  51.0345 309.0792 15.06388531107790","REF_FRAME":"TEME","CENTER_NAME":"EARTH","OBJECT_NAME":"STARLINK-1723","RA_OF_ASC_NODE":"109.6269","MEAN_ELEMENT_THEORY":"SGP4","LAUNCH_DATE":"2020-09-03","ELEMENT_SET_NO":"999","REV_AT_EPOCH":"10779","BSTAR":"0.00013998000000","EPOCH":"2022-08-13T21:15:43.455168","INCLINATION":"53.0537","OBJECT_TYPE":"PAYLOAD","MEAN_MOTION_DOT":"0.00001803","CLASSIFICATION_TYPE":"U","TIME_SYSTEM":"UTC","OBJECT_ID":"2020-062J","PERIAPSIS":"546.094","PERIOD":"95.593","TLE_LINE1":"1 46333U 20062J   22225.88591962  .00001803  00000-0  13998-3 0  9995","MEAN_MOTION":"15.06388531","SITE":"AFETR","RCS_SIZE":"LARGE","COUNTRY_CODE":"US"}];
